{"type": "FeatureCollection", "features": [ {"type": "Feature", "properties": {"norad_id": 54234, "name": "NOAA 21 (JPSS-2)", "group": "weather", "lat": 44.02905205797887, "lon": 103.42160808948738, "alt_km": 822.9596166994806, "timestamp": "2025-12-04T10:51:49.749713+00:00", "meta": {"OBJECT_NAME": "NOAA 21 (JPSS-2)", "OBJECT_ID": "2022-150A", "EPOCH": "2025-12-04T01:46:14.916000", "MEAN_MOTION": 14.19520426, "ECCENTRICITY": 0.0002524, "INCLINATION": 98.7449, "RA_OF_ASC_NODE": 274.4907, "ARG_OF_PERICENTER": 54.3468, "MEAN_ANOMALY": 305.7943, "EPHEMERIS_TYPE": 0, "CLASSIFICATION_TYPE": "U", "NORAD_CAT_ID": 54234, "ELEMENT_SET_NO": 999, "REV_AT_EPOCH": 15886, "BSTAR": 0.00011835, "MEAN_MOTION_DOT": 2.06e-06, "MEAN_MOTION_DDOT": 0}, "tle": {"line1": "1 54234U 22150A   25338.07378375  .00000206  00000+0  11835-3 0  9997", "line2": "2 54234  98.7449 274.4907 0002524  54.3468 305.7943 14.19520426158860"}}, "geometry": {"type": "Point", "coordinates": [103.42160808948738, 44.02905205797887]}}, {"type": "Feature", "properties": {"norad_id": 54743, "name": "METEOSAT-12 (MTG-I1)", "group": "weather", "lat": -0.34218327673191884, "lon": -123.8224074284538, "alt_km": 35779.213719637606, "timestamp": "2025-12-04T10:51:49.749725+00:00", "meta": {"OBJECT_NAME": "METEOSAT-12 (MTG-I1)", "OBJECT_ID": "2022-170C", "EPOCH": "2025-12-03T18:42:38.603808", "MEAN_MOTION": 1.00273728, "ECCENTRICITY": 0.00015205, "INCLINATION": 0.7181, "RA_OF_ASC_NODE": 30.0784, "ARG_OF_PERICENTER": 216.336, "MEAN_ANOMALY": 106.8238, "EPHEMERIS_TYPE": 0, "CLASSIFICATION_TYPE": "U", "NORAD_CAT_ID": 54743, "ELEMENT_SET_NO": 999, "REV_AT_EPOCH": 1101, "BSTAR": 0, "MEAN_MOTION_DOT": 1e-07, "MEAN_MOTION_DDOT": 0}, "tle": {"line1": "1 54743U 22170C   25337.77961347  .00000010  00000+0  00000+0 0  9998", "line2": "2 54743   0.7181  30.0784 0001520 216.3360 106.8238  1.00273728 11014"}}, "geometry": {"type": "Point", "coordinates": [-123.8224074284538, -0.34218327673191884]}}, {"type": "Feature", "properties": {"norad_id": 55973, "name": "TIANMU-1 03", "group": "weather", "lat": 49.889185697137385, "lon": 131.86506719101166, "alt_km": 437.3938634335982, "timestamp": "2025-12-04T10:51:49.749739+00:00", "meta": {"OBJECT_NAME": "TIANMU-1 03", "OBJECT_ID": "2023-039A", "EPOCH": "2025-12-04T04:24:35.794368", "MEAN_MOTION": 15.40538548, "ECCENTRICITY": 0.0004575, "INCLINATION": 97.5102, "RA_OF_ASC_NODE": 140.599, "ARG_OF_PERICENTER": 85.6934, "MEAN_ANOMALY": 274.4835, "EPHEMERIS_TYPE": 0, "CLASSIFICATION_TYPE": "U", "NORAD_CAT_ID": 55973, "ELEMENT_SET_NO": 999, "REV_AT_EPOCH": 15074, "BSTAR": 0.00077619, "MEAN_MOTION_DOT": 0.00031535, "MEAN_MOTION_DDOT": 0}, "tle": {"line1": "1 55973U 23039A   25338.18374762  .00031535  00000+0  77619-3 0  9994", "line2": "2 55973  97.5102 140.5990 0004575  85.6934 274.4835 15.40538548150742"}}, "geometry": {"type": "Point", "coordinates": [131.86506719101166, 49.889185697137385]}}, {"type": "Feature", "properties": {"norad_id": 55974, "name": "TIANMU-1 04", "group": "weather", "lat": 24.989573938395196, "lon": -36.40827403926936, "alt_km": 441.8653987006519, "timestamp": "2025-12-04T10:51:49.749752+00:00", "meta": {"OBJECT_NAME": "TIANMU-1 04", "OBJECT_ID": "2023-039B", "EPOCH": "2025-12-04T05:31:10.386912", "MEAN_MOTION": 15.40873315, "ECCENTRICITY": 0.0005239, "INCLINATION": 97.5035, "RA_OF_ASC_NODE": 139.841, "ARG_OF_PERICENTER": 81.7253, "MEAN_ANOMALY": 278.4587, "EPHEMERIS_TYPE": 0, "CLASSIFICATION_TYPE": "U", "NORAD_CAT_ID": 55974, "ELEMENT_SET_NO": 999, "REV_AT_EPOCH": 15075, "BSTAR": 0.00081629, "MEAN_MOTION_DOT": 0.00033549, "MEAN_MOTION_DDOT": 0}, "tle": {"line1": "1 55974U 23039B   25338.22998133  .00033549  00000+0  81629-3 0  9997", "line2": "2 55974  97.5035 139.8410 0005239  81.7253 278.4587 15.40873315150758"}}, "geometry": {"type": "Point", "coordinates": [-36.40827403926936, 24.989573938395196]}}, {"type": "Feature", "properties": {"norad_id": 55975, "name": "TIANMU-1 05", "group": "weather", "lat": -17.714206198076422, "lon": -41.852890575270195, "alt_km": 450.0070226994094, "timestamp": "2025-12-04T10:51:49.749762+00:00", "meta": {"OBJECT_NAME": "TIANMU-1 05", "OBJECT_ID": "2023-039C", "EPOCH": "2025-12-04T05:19:53.875776", "MEAN_MOTION": 15.40500895, "ECCENTRICITY": 0.0004332, "INCLINATION": 97.5081, "RA_OF_ASC_NODE": 140.3249, "ARG_OF_PERICENTER": 102.156, "MEAN_ANOMALY": 258.0171, "EPHEMERIS_TYPE": 0, "CLASSIFICATION_TYPE": "U", "NORAD_CAT_ID": 55975, "ELEMENT_SET_NO": 999, "REV_AT_EPOCH": 15073, "BSTAR": 0.0008209, "MEAN_MOTION_DOT": 0.00033321, "MEAN_MOTION_DDOT": 0}, "tle": {"line1": "1 55975U 23039C   25338.22215134  .00033321  00000+0  82090-3 0  9992", "line2": "2 55975  97.5081 140.3249 0004332 102.1560 258.0171 15.40500895150730"}}, "geometry": {"type": "Point", "coordinates": [-41.852890575270195, -17.714206198076422]}}, {"type": "Feature", "properties": {"norad_id": 55976, "name": "TIANMU-1 06", "group": "weather", "lat": 38.48646347876706, "lon": -32.96027403840448, "alt_km": 438.24405008010945, "timestamp": "2025-12-04T10:51:49.749772+00:00", "meta": {"OBJECT_NAME": "TIANMU-1 06", "OBJECT_ID": "2023-039D", "EPOCH": "2025-12-04T04:01:12.603936", "MEAN_MOTION": 15.40921573, "ECCENTRICITY": 0.000469, "INCLINATION": 97.5092, "RA_OF_ASC_NODE": 140.7268, "ARG_OF_PERICENTER": 98.0343, "MEAN_ANOMALY": 262.1435, "EPHEMERIS_TYPE": 0, "CLASSIFICATION_TYPE": "U", "NORAD_CAT_ID": 55976, "ELEMENT_SET_NO": 999, "REV_AT_EPOCH": 15074, "BSTAR": 0.00077802, "MEAN_MOTION_DOT": 0.00032014, "MEAN_MOTION_DDOT": 0}, "tle": {"line1": "1 55976U 23039D   25338.16750699  .00032014  00000+0  77802-3 0  9999", "line2": "2 55976  97.5092 140.7268 0004690  98.0343 262.1435 15.40921573150747"}}, "geometry": {"type": "Point", "coordinates": [-32.96027403840448, 38.48646347876706]}}, {"type": "Feature", "properties": {"norad_id": 56232, "name": "FENGYUN 3G", "group": "weather", "lat": 20.682143704258344, "lon": 71.70926993994615, "alt_km": 401.32101121200503, "timestamp": "2025-12-04T10:51:49.749782+00:00", "meta": {"OBJECT_NAME": "FENGYUN 3G", "OBJECT_ID": "2023-055A", "EPOCH": "2025-12-03T23:24:01.752192", "MEAN_MOTION": 15.52834641, "ECCENTRICITY": 0.00092367, "INCLINATION": 49.9947, "RA_OF_ASC_NODE": 272.6575, "ARG_OF_PERICENTER": 106.4167, "MEAN_ANOMALY": 253.7816, "EPHEMERIS_TYPE": 0, "CLASSIFICATION_TYPE": "U", "NORAD_CAT_ID": 56232, "ELEMENT_SET_NO": 999, "REV_AT_EPOCH": 14966, "BSTAR": 0.00080679572, "MEAN_MOTION_DOT": 0.0005097, "MEAN_MOTION_DDOT": 0}, "tle": {"line1": "1 56232U 23055A   25337.97502028  .00050970  00000+0  80680-3 0  9991", "line2": "2 56232  49.9947 272.6575 0009236 106.4167 253.7816 15.52834641149668"}}, "geometry": {"type": "Point", "coordinates": [71.70926993994615, 20.682143704258344]}}, {"type": "Feature", "properties": {"norad_id": 57166, "name": "METEOR-M2 3", "group": "weather", "lat": -81.046907679327, "lon": 137.3426663751678, "alt_km": 820.8322729337515, "timestamp": "2025-12-04T10:51:49.749795+00:00", "meta": {"OBJECT_NAME": "METEOR-M2 3", "OBJECT_ID": "2023-091A", "EPOCH": "2025-12-04T04:33:05.698656", "MEAN_MOTION": 14.24024553, "ECCENTRICITY": 0.0004364, "INCLINATION": 98.639, "RA_OF_ASC_NODE": 31.8779, "ARG_OF_PERICENTER": 31.8139, "MEAN_ANOMALY": 328.3303, "EPHEMERIS_TYPE": 0, "CLASSIFICATION_TYPE": "U", "NORAD_CAT_ID": 57166, "ELEMENT_SET_NO": 999, "REV_AT_EPOCH": 12676, "BSTAR": 5.3052e-05, "MEAN_MOTION_DOT": 7.8e-07, "MEAN_MOTION_DDOT": 0}, "tle": {"line1": "1 57166U 23091A   25338.18964929  .00000078  00000+0  53052-4 0  9992", "line2": "2 57166  98.6390  31.8779 0004364  31.8139 328.3303 14.24024553126763"}}, "geometry": {"type": "Point", "coordinates": [137.3426663751678, -81.046907679327]}}, {"type": "Feature", "properties": {"norad_id": 57399, "name": "TIANMU-1 07", "group": "weather", "lat": -58.08360607302985, "lon": -163.37281433224138, "alt_km": 492.0715856599927, "timestamp": "2025-12-04T10:51:49.749805+00:00", "meta": {"OBJECT_NAME": "TIANMU-1 07", "OBJECT_ID": "2023-101A", "EPOCH": "2025-12-04T03:32:06.173088", "MEAN_MOTION": 15.27877348, "ECCENTRICITY": 0.0005619, "INCLINATION": 97.2892, "RA_OF_ASC_NODE": 28.188, "ARG_OF_PERICENTER": 103.4101, "MEAN_ANOMALY": 256.7765, "EPHEMERIS_TYPE": 0, "CLASSIFICATION_TYPE": "U", "NORAD_CAT_ID": 57399, "ELEMENT_SET_NO": 999, "REV_AT_EPOCH": 13184, "BSTAR": 0.00057645, "MEAN_MOTION_DOT": 0.00015638, "MEAN_MOTION_DDOT": 0}, "tle": {"line1": "1 57399U 23101A   25338.14729367  .00015638  00000+0  57645-3 0  9992", "line2": "2 57399  97.2892  28.1880 0005619 103.4101 256.7765 15.27877348131847"}}, "geometry": {"type": "Point", "coordinates": [-163.37281433224138, -58.08360607302985]}}, {"type": "Feature", "properties": {"norad_id": 57400, "name": "TIANMU-1 08", "group": "weather", "lat": 60.00154440636257, "lon": 15.478430278403739, "alt_km": 472.8305788005582, "timestamp": "2025-12-04T10:51:49.749817+00:00", "meta": {"OBJECT_NAME": "TIANMU-1 08", "OBJECT_ID": "2023-101B", "EPOCH": "2025-12-04T04:18:40.776768", "MEAN_MOTION": 15.27863124, "ECCENTRICITY": 0.0007486, "INCLINATION": 97.288, "RA_OF_ASC_NODE": 28.0193, "ARG_OF_PERICENTER": 107.8888, "MEAN_ANOMALY": 252.3168, "EPHEMERIS_TYPE": 0, "CLASSIFICATION_TYPE": "U", "NORAD_CAT_ID": 57400, "ELEMENT_SET_NO": 999, "REV_AT_EPOCH": 13184, "BSTAR": 0.00057448, "MEAN_MOTION_DOT": 0.00015583, "MEAN_MOTION_DDOT": 0}, "tle": {"line1": "1 57400U 23101B   25338.17963862  .00015583  00000+0  57448-3 0  9998", "line2": "2 57400  97.2880  28.0193 0007486 107.8888 252.3168 15.27863124131843"}}, "geometry": {"type": "Point", "coordinates": [15.478430278403739, 60.00154440636257]}}]}